0 COSMOS 1275 DEB
1 13815U 81053HK  18235.78117884 +.00000618 +00000-0 +60749-3 0  9992
2 13815 083.0325 170.2169 0116436 157.9462 230.9148 13.74383039776628
0 COSMOS 1275 DEB
1 13816U 81053HL  18235.94297429 +.00000377 +00000-0 +31957-3 0  9996
2 13816 082.9885 041.2947 0159102 342.9096 138.0860 13.79603300765881
0 SL-3 R/B
1 13819U 83010B   18235.87704340 +.00000543 +00000-0 +27127-4 0  9991
2 13819 081.1165 014.4209 0031911 337.4530 022.5294 15.15355264938951
0 SL-3 R/B
1 13819U 83010B   18236.07513731  .00000566  00000-0  28316-4 0  9992
2 13819  81.1165  14.1895 0031897 336.7847  23.1938 15.15355446939275
0 DELTA 1 DEB
1 13825U 78026FU  18236.10619807  .00000701  00000-0  29630-3 0  9995
2 13825  98.9800 298.9845 0140053 184.2166 234.2373 14.23673780831031
0 DELTA 1 DEB
1 13825U 78026FU  18235.89518130 +.00000709 +00000-0 +29950-3 0  9990
2 13825 098.9801 298.7690 0140037 184.8190 232.7334 14.23673496830722
0 DELTA 1 DEB
1 13826U 78026FV  18235.96084927 +.00000299 +00000-0 +73534-4 0  9993
2 13826 098.0558 230.1729 0045436 081.5480 279.0866 14.58349166884295
0 DELTA 1 DEB
1 13826U 78026FV  18236.16668354  .00000300  00000-0  73678-4 0  9990
2 13826  98.0558 230.3724 0045438  80.9325 279.7013 14.58349311884591
0 DELTA 1 DEB
1 13827U 78026FW  18235.95439611 +.00000224 +00000-0 +67600-4 0  9992
2 13827 098.2060 221.9861 0072604 284.5748 127.9345 14.50019654865593
0 EKRAN 10
1 13878U 83016A   18235.92063102 -.00000113  00000-0  00000+0 0  9992
2 13878  15.7836 335.2902 0035518 317.8877  44.3822  0.95030353 92097
0 SL-6 R/B(2)
1 13882U 83015E   18236.59339929  .00000479  00000-0  10485+0 0  9995
2 13882  63.7484 233.2818 6760874 261.7500 308.2564  1.96758832254785
0 SL-12 R/B(2)
1 13900U 79015D   18236.79317062  .00000033  00000-0  00000+0 0  9995
2 13900  10.9970 313.4001 0009192 251.8946 212.8662  1.01337418 98124
0 SL-12 R/B(2)
1 13900U 79015D   18235.51438355 +.00000007 +00000-0 +00000-0 0  9995
2 13900 010.9993 313.4163 0009190 251.8146 106.4028 01.01337537098113
0 SL-6 DEB
1 13910U 81088K   18236.67016115 -.00000027  00000-0 -12696-3 0  9994
2 13910  62.8763 105.4498 4790889 260.4300  44.3906  5.43002716511527
0 COSMOS 1447
1 13916U 83021A   18235.74154663 +.00000031 +00000-0 +16867-4 0  9995
2 13916 082.9473 313.7454 0036640 235.5211 277.4640 13.75069960776758
0 COSMOS 1447
1 13916U 83021A   18236.22553007  .00000034  00000-0  19890-4 0  9996
2 13916  82.9472 313.3871 0036657 234.1261 153.3481 13.75069979777086
0 NOAA 8
1 13923U 83022A   18235.90935456 -.00000003 +00000-0 +16147-4 0  9990
2 13923 098.5507 221.5587 0014780 336.9352 023.1165 14.28649416843429
0 NOAA 8
1 13923U 83022A   18236.46964288 -.00000007  00000-0  14304-4 0  9994
2 13923  98.5508 222.1080 0014753 335.2408  24.8064 14.28649438843766
0 NOAA 8
1 13923U 83022A   18236.46964288 -.00000007  00000-0  14304-4 0  9994
2 13923  98.5508 222.1080 0014753 335.2408  24.8064 14.28649438843766
0 THOR ABLESTAR DEB
1 13942U 61015KZ  18235.86511243 +.00000519 +00000-0 +12798-2 0  9995
2 13942 065.8640 138.1540 0381144 092.6402 033.4247 13.04839959695976
0 COSMOS 886 DEB *
1 13943U 76126BM  18235.71398793 +.00000248 +00000-0 +16675-3 0  9990
2 13943 065.5819 075.8949 0085006 219.9069 264.5037 14.15748997737484
0 COSMOS 886 DEB *
1 13943U 76126BM  18236.91043250  .00000297  00000-0  19093-3 0  9999
2 13943  65.5818  72.6992 0084941 219.3382 242.4206 14.15750012737658
0 COSMOS 839 DEB
1 13946U 76067BE  18236.90269095  .00000553  00000-0  18825-2 0  9998
2 13946  66.0625 101.1353 0646660  85.2483  16.8168 12.49413164616224
0 COSMOS 970 DEB
1 13948U 77121BD  18235.90609829 +.00000234 +00000-0 +30029-3 0  9991
2 13948 065.7637 033.7864 0075828 288.9638 234.4664 13.79449219909057
0 COSMOS 1448
1 13949U 83023A   18235.95354066 +.00000019 +00000-0 +33583-5 0  9996
2 13949 082.9570 027.6059 0029786 179.3013 293.3761 13.75877697777332
0 COSMOS 1448
1 13949U 83023A   18236.89835332  .00000018  00000-0  24971-5 0  9990
2 13949  82.9572  26.9063 0029857 176.6902 293.1550 13.75877738777674
0 SL-8 R/B
1 13950U 83023B   18235.86799219 +.00000051 +00000-0 +35586-4 0  9991
2 13950 082.9563 009.6970 0038163 134.6509 225.7771 13.76870452778346
0 SL-12 R/B(2)
1 13954U 82113F   18236.34121376 -.00000057  00000-0  00000+0 0  9996
2 13954  14.4662 335.4587 0021611 220.0326 151.3564  0.97570028 92035
0 COSMOS 1285 DEB
1 13961U 81071F   18236.51421260  .00000769  00000-0  00000+0 0  9999
2 13961  69.5210 228.0487 5395082  61.6798 342.0932  1.98111201265735
0 COSMOS 1285 DEB
1 13961U 81071F   18235.50468023 +.00000725 +00000-0 +00000-0 0  9998
2 13961 069.5210 228.0953 5394756 061.7128 342.0823 01.98110475265728
0 IUS R/B(2)
1 13970U 83026C   18235.90898403 -.00000145 +00000-0 +00000-0 0  9990
2 13970 001.3527 007.7671 1834638 156.3353 245.8801 01.32156981170830
0 IUS R/B(1)
1 13971U 83026D   18236.19884466  .00002166  00000-0  31979-3 0  9993
2 13971  25.7309 196.7788 6152085  35.8251 352.8708  3.83068825393524
0 RADUGA 12
1 13974U 83028A   18235.82810937 -.00000050 +00000-0 +00000-0 0  9998
2 13974 013.5518 332.8720 0002871 333.2168 032.4553 01.00289734140762
0 RADUGA 12
1 13974U 83028A   18236.83315350 -.00000049  00000-0  00000+0 0  9996
2 13974  13.5504 332.8609 0002887 333.0231  35.5281  1.00289854140764
0 SL-12 R/B(2)
1 13983U 83028F   18235.69237042 -.00000329 +00000-0 +00000-0 0  9992
2 13983 013.5883 332.9307 0022977 146.3046 209.7294 01.00041348129244
0 COSMOS 1452
1 13991U 83031A   18235.87671226 +.00000000 +00000-0 +96312-5 0  9992
2 13991 074.0497 015.7442 0016901 324.7218 192.5912 14.33030834847651
0 COSMOS 1452
1 13991U 83031A   18236.48625716 -.00000004  00000-0  79194-5 0  9997
2 13991  74.0498  14.6315 0016919 323.5044  97.1346 14.33030896848001
0 SL-8 R/B
1 13992U 83031B   18235.65543460 +.00000026 +00000-0 +17745-4 0  9997
2 13992 074.0532 293.9338 0004816 181.7884 178.3253 14.36125964850609
0 SL-8 R/B
1 13992U 83031B   18236.21271341  .00000029  00000-0  18885-4 0  9995
2 13992  74.0531 292.9117 0004796 180.6772 179.4375 14.36126023850966
0 COSMOS 1191 DEB
1 13999U 80057G   18235.57456012 -.00000266 +00000-0 +00000-0 0  9995
2 13999 065.3182 254.3345 6205907 051.2594 020.1272 02.01346139272586
0 SL-12 R/B(2)
1 14005U 79062D   18235.73938219 -.00000039 +00000-0 +00000-0 0  9998
2 14005 013.5912 322.6449 0002723 232.5150 119.8648 00.97668798093903
0 COSMOS 1455
1 14032U 83037A   18235.82488731 +.00000586 +00000-0 +27422-4 0  9991
2 14032 082.5167 019.8598 0016440 211.5855 148.4393 15.17648432926744
0 COSMOS 1455
1 14032U 83037A   18235.95675434  .00000592  00000-0  27710-4 0  9990
2 14032  82.5167  19.7294 0016450 211.1167 148.9094 15.17648558927001
0 SL-14 R/B
1 14033U 83037B   18236.17224569  .00000069  00000-0  54211-5 0  9991
2 14033  82.5076 300.4962 0019123 123.4317 236.8731 14.83752648543811
0 SL-14 R/B
1 14033U 83037B   18235.70017685 +.00000061 +00000-0 +44626-5 0  9999
2 14033 082.5076 300.9393 0019102 124.8706 235.4309 14.83752585522642
0 OPS 4682 DEB
1 14049U 65027L   18236.44581403 -.00000374  00000-0 -13770-2 0  9993
2 14049  90.3061 298.6429 0035976 101.4897 318.5296 12.93959764689179
0 GOES 6
1 14050U 83041A   18236.43413670  .00000048  00000-0  00000+0 0  9995
2 14050  14.2622 345.3799 0001387 253.4097 117.7169  1.00252455187448
0 DELTA 1 R/B(1)
1 14051U 83041B   18235.67690223 +.00001271 +00000-0 +99963-4 0  9992
2 14051 025.3345 345.3627 1093701 170.4413 191.8796 13.09197875635157
0 DELTA 1 R/B(1)
1 14051U 83041B   18236.51523578  .00001247  00000-0  97093-4 0  9999
2 14051  25.3349 341.1725 1093708 177.5911 183.0407 13.09199502635254
0 COSMOS 1459
1 14057U 83042A   18235.73774543 +.00000025 +00000-0 +10386-4 0  9992
2 14057 082.9740 131.2324 0048044 250.3192 109.2778 13.76541365772996
0 COSMOS 1459
1 14057U 83042A   18236.17386767  .00000029  00000-0  14653-4 0  9993
2 14057  82.9740 130.9099 0048056 249.0653 110.5358 13.76541366773318
0 SL-8 R/B
1 14059U 83042B   18235.69398985 +.00000082 +00000-0 +64839-4 0  9996
2 14059 082.9701 100.9085 0043604 130.8333 229.6619 13.78633066775084
0 SL-8 R/B
1 14059U 83042B   18236.78264358  .00000090  00000-0  72905-4 0  9995
2 14059  82.9699 100.1002 0043652 127.8522 232.6599 13.78633236775495
0 COSMOS 1461
1 14064U 83044A   18235.84050314 +.00000218 +00000-0 +32730-4 0  9998
2 14064 065.0013 025.4916 0117578 239.1716 119.7789 14.94142441787982
0 COSMOS 1461
1 14064U 83044A   18236.44290027  .00000223  00000-0  33122-4 0  9994
2 14064  65.0013  23.6261 0117555 238.9637 119.9895 14.94143017788070
0 GOES 6 AKM
1 14069U 83041C   18236.54668993 -.00000223  00000-0  00000+0 0  9993
2 14069  20.8435 342.9403 1643948  53.4950 327.7173  0.84339590 75025
0 INTELSAT 506
1 14077U 83047A   18235.62894994 -.00000314 +00000-0 +00000-0 0  9990
2 14077 015.1757 356.9591 0038687 266.5376 083.4483 00.99164698095772
0 COSMOS 1464
1 14084U 83048A   18235.83367919 +.00000013 +00000-0 -26468-5 0  9991
2 14084 082.9481 157.2354 0031459 067.2285 323.8452 13.74445399767826
0 COSMOS 1464
1 14084U 83048A   18236.22222332  .00000017  00000-0  15815-5 0  9991
2 14084  82.9481 156.9481 0031452  66.1926  86.3155 13.74445402768081
0 DELTA 1 R/B
1 14096U 83051B   18236.19589611  .00000550  00000-0  96040-3 0  9999
2 14096  72.2986 261.8602 1095515 281.8084  66.2290 12.09712582556231
0 DELTA 1 R/B
1 14096U 83051B   18235.61709203 +.00000539 +00000-0 +94140-3 0  9992
2 14096 072.2986 262.6672 1095517 282.5222 065.5590 12.09711916555965
0 SL-12 R/B(2)
1 14114U 82044F   18235.82793491 -.00000066 +00000-0 +00000-0 0  9994
2 14114 014.0704 327.6970 0013289 116.8952 253.4854 01.00393082018723
